IRIDIUM 126             
1 42809U 17039G   26005.58799682  .00000248  00000+0  81533-4 0  9997
2 42809  86.3941  61.6135 0002255 101.1714 258.9735 14.34216924446646
IRIDIUM 124             
1 42810U 17039H   26005.47158208  .00000587  00000+0  16864-3 0  9990
2 42810  86.4494 358.3827 0002456  90.1805 269.9677 14.43276210451644
IRIDIUM 128             
1 42811U 17039J   26005.29966176  .00000403  00000+0  13688-3 0  9990
2 42811  86.3964  93.2729 0002276  91.6787 268.4669 14.34216338446630
IRIDIUM 121             
1 42812U 17039K   26005.60702525  .00000042  00000+0  80564-5 0  9990
2 42812  86.3944  61.6319 0002164  92.0247 268.1196 14.34217668446522
IRIDIUM 133             
1 42955U 17061A   26005.61044834  .00000091  00000+0  25300-4 0  9996
2 42955  86.3963  93.2565 0002213  97.3421 262.8026 14.34217901431473
IRIDIUM 100             
1 42956U 17061B   26005.60410434  .00000107  00000+0  31185-4 0  9995
2 42956  86.3962  93.1821 0002126  98.6144 261.5293 14.34215572431470
IRIDIUM 122             
1 42957U 17061C   26005.64215941  .00000473  00000+0  16188-3 0  9997
2 42957  86.3965  93.1656 0002151  99.8413 260.3026 14.34216432431488
IRIDIUM 129             
1 42958U 17061D   26005.59776221  .00000085  00000+0  23407-4 0  9997
2 42958  86.3964  93.2493 0001802 104.9717 255.1679 14.34217564431499
